nces_id,corp_id,corp_name,address,city,state,zip,lon,lat,coord
1800060,0015,Adams Central Community Schools,222 W Washington St,Monroe,IN,46772-9436,-84.941778,40.7466331,40.7466331+-84.941778
1807680,0025,North Adams Community Schools,625 Stadium Dr,Decatur,IN,46733,-84.9129215,40.8369624,40.8369624+-84.9129215
1810260,0035,South Adams Schools,1075 Starfire Way,Berne,IN,46711,-84.9592768,40.6471358,40.6471358+-84.9592768
1800030,0125,Metropolitan School District Southwest Allen County Schools,4824 Homestead Rd,Fort Wayne,IN,46814,-85.2849648,41.0391371,41.0391371+-85.2849648
1808250,0225,Northwest Allen County Schools,13119 Coldwater Rd,Fort Wayne,IN,46845,-85.1365144,41.2044412,41.2044412+-85.1365144
1803630,0235,Fort Wayne Community Schools,1200 S Clinton St,Fort Wayne,IN,46802,-85.13779989999999,41.074349,41.074349+-85.1377999
1802850,0255,East Allen County Schools,1240 SR 930 E,New Haven,IN,46774,-85.01177320000001,41.0664972,41.0664972+-85.0117732
1800360,0365,Bartholomew Consolidated School Corporation,1200 Central Ave,Columbus,IN,47201,-85.9046965,39.2110398,39.2110398+-85.9046965
1803570,0370,Flat Rock-Hawcreek School Corporation,9423 N SR 9,Hope,IN,47246,-85.7714416,39.2933543,39.2933543+-85.7714416
1800480,0395,Benton Community School Corporation,PO Box 512,Fowler,IN,47944,-87.3208518,40.6167044,40.6167044+-87.3208518
1800570,0515,Blackford County Schools,0668 W 200 S,Hartford City,IN,47348,-85.3826845,40.4210207,40.4210207+-85.3826845
1812990,0615,Western Boone County Community School District,1201 N SR 75,Thorntown,IN,46071,-86.6195189,40.0572354,40.0572354+-86.6195189
1802830,0630,Zionsville Community Schools,900 Mulberry St,Zionsville,IN,46077,-86.27089199999999,39.9609071,39.9609071+-86.270892
1805790,0665,Lebanon Community School Corporation,1810 N Grant St,Lebanon,IN,46052,-86.4576285,40.0628062,40.0628062+-86.4576285
1800960,0670,Brown County School Corporation,357 E Main St,Nashville,IN,47448,-86.2427226,39.2055185,39.2055185+-86.2427226
1801290,0750,Carroll Consolidated School Corporation,2 S 3rd St,Flora,IN,46929,-86.5149909,40.5478728,40.5478728+-86.5149909
1802700,0755,Delphi Community School Corporation,501 Armory Rd,Delphi,IN,46923,-86.66886029999999,40.5759817,40.5759817+-86.6688603
1808940,0775,Pioneer Regional School Corporation,PO Box 577,Royal Center,IN,46978,-86.4997266,40.8644849,40.8644849+-86.4997266
1810680,0815,Lewis Cass Schools,100 S Main Street,Walton,IN,46994,-86.2421671,40.6603191,40.6603191+-86.2421671
1806030,0875,Logansport Community School Corporation,2829 George St,Logansport,IN,46947,-86.32951589999999,40.7562044,40.7562044+-86.3295159
1800212,0935,Borden-Henryville School Corporation,14312 Railroad St.,Memphis,IN,47143,-85.7608169,38.4872222,38.4872222+-85.7608169
1800213,0945,Silver Creek School Corporation,601 Renz Ave,Sellersburg,IN,47172,-85.7561303,38.4090818,38.4090818+-85.7561303
1801920,1000,Clarksville Community School Corporation,502 Little League Blvd,Clarksville,IN,47129,-85.76037,38.302952,38.302952+-85.76037
1803940,1010,Greater Clark County Schools,2112 Utica-Sellersburg Rd,Jeffersonville,IN,47130,-85.6802858,38.3379933,38.3379933+-85.6802858
NA,1025,IDOE Test LEA,115 W. Washington Street,Indianpolis,IN,46024,-86.16076729999999,39.7665282,39.7665282+-86.1607673
1800840,1125,Clay Community Schools,1013 S Forest Ave,Brazil,IN,47834,-87.1258249,39.5134072,39.5134072+-87.1258249
1802130,1150,Clinton Central School Corporation,Box 118,Michigantown,IN,46057,-86.3927764,40.3264255,40.3264255+-86.3927764
1802160,1160,Clinton Prairie School Corporation,2390 S CR 450 W,Frankfort,IN,46041,-86.5920065,40.2512842,40.2512842+-86.5920065
1803660,1170,Community Schools of Frankfort,2400 E Wabash Ave,Frankfort,IN,46041,-86.4815293,40.2795014,40.2795014+-86.4815293
1809720,1180,Rossville Consolidated School District,PO Box 11,Rossville,IN,46065,-86.59472389999999,40.4169804,40.4169804+-86.5947239
1802440,1300,Crawford County Community School Corporation,5805 E Administration Rd,Marengo,IN,47140,-86.3524482,38.3216422,38.3216422+-86.3524482
1800330,1315,Barr-Reeve Community Schools Incorporated,Box 97,Montgomery,IN,47558,-87.0461181,38.66254929999999,38.6625493+-87.0461181
1807710,1375,North Daviess Community Schools,5494 E SR 58,Elnora,IN,47529,-87.0621139,38.8474324,38.8474324+-87.0621139
1812450,1405,Washington Community Schools,301 E South St,Washington,IN,47501,-87.172009,38.6558995,38.6558995+-87.172009
1811600,1425,Twin Rivers Career & Technology Ed Area,PO Box 1266,Vincennes,IN,47591,-87.5286325,38.677269,38.677269+-87.5286325
1802580,1440,Daviess-Martin Special Ed Cooperative,9 West Main Street,Washington,IN,47501,-87.1761363,38.6567356,38.6567356+-87.1761363
1811190,1560,Sunman-Dearborn Community School Corporation,1 Trojan Place Ste B,St Leon,IN,47012,-84.9741916,39.2792271,39.2792271+-84.9741916
NA,1575,Ripley-Ohio-Dearborn Special Ed Cooperative,925 N Meridian St Ste 100,Sunman,IN,47041,-85.0994029,39.2454393,39.2454393+-85.0994029
1800240,1600,South Dearborn Community School Corporation,6109 Squire Pl,Aurora,IN,47001,-84.93244539999999,39.0631799,39.0631799+-84.9324454
1805700,1620,Lawrenceburg Community School Corporation,300 Tiger Blvd,Lawrenceburg,IN,47025,-84.8515194,39.1005703,39.1005703+-84.8515194
1802610,1655,Decatur County Community Schools,2020 N Montgomery Rd,Greensburg,IN,47240,-85.4695443,39.3576501,39.3576501+-85.4695443
1804080,1730,Greensburg Community Schools,1312 W Westridge Pky,Greensburg,IN,47240,-85.503565,39.35270149999999,39.3527015+-85.503565
1803060,1805,DeKalb County Eastern Community School District,300 E Washington St,Butler,IN,46721,-84.8683164,41.431321,41.431321+-84.8683164
1803840,1820,Garrett-Keyser-Butler Community School Corporation,801 E Houston St,Garrett,IN,46738,-85.1268665,41.3467725,41.3467725+-85.1268665
1801590,1835,DeKalb County Central United School District,3326 CR 427,Waterloo,IN,46793,-85.03670249999999,41.4097465,41.4097465+-85.0367025
1802660,1875,Delaware Community School Corporation,9750 N CR 200 E,Muncie,IN,47303,-85.4217108,40.07470379999999,40.0747038+-85.4217108
1804500,1885,Wes-Del Community Schools,10290 N CR 600 W,Gaston,IN,47342,-85.50043029999999,40.2820051,40.2820051+-85.5004303
1805880,1895,Liberty-Perry Community School Corporation,Box 337,Selma,IN,47383,-85.2688579,40.1917102,40.1917102+-85.2688579
1807020,1900,Cowan Community School Corporation,9401 S Nottingham,Muncie,IN,47302,-85.3931312,40.1080198,40.1080198+-85.3931312
1807230,1910,Yorktown Community Schools,2311 S Broadway St,Yorktown,IN,47396,-85.4932819,40.1719658,40.1719658+-85.4932819
1809840,1940,Daleville Community Schools,14300 W 2nd St,Daleville,IN,47334,-85.555199,40.11991190000001,40.1199119+-85.555199
1807320,1970,Muncie Community Schools,4301 S. Cowan Road,Muncie,IN,47303,-85.4057523,40.1545906,40.1545906+-85.4057523
1808120,2040,Northeast Dubois County School Corporation,5379 E Main St Box 158,Dubois,IN,47527,-86.80590409999999,38.4455714,38.4455714+-86.8059041
1810640,2100,Southeast Dubois County School Corporation,432 E 15th St,Ferdinand,IN,47532,-86.8573423,38.2289136,38.2289136+-86.8573423
1810870,2110,Southwest Dubois County School Corporation,105 West Sunset Drive,Huntingburg,IN,47542,-86.9611558,38.2767247,38.2767247+-86.9611558
1803960,2120,Greater Jasper Consolidated Schools,1520 St Charles St Suite 1,Jasper,IN,47546,-86.9514957,38.4005881,38.4005881+-86.9514957
1803480,2155,Fairfield Community Schools,67240 CR 31,Goshen,IN,46528,-85.76910749999999,41.5198641,41.5198641+-85.7691075
1800420,2260,Baugo Community Schools,29125 CR 22 W,Elkhart,IN,46517,-86.0247922,41.6358254,41.6358254+-86.0247922
1802400,2270,Concord Community Schools,59040 Minuteman Way,Elkhart,IN,46517,-85.92775089999999,41.6374023,41.6374023+-85.9277509
1806600,2275,Middlebury Community Schools,56853 Northridge Dr,Middlebury,IN,46540,-85.7261039,41.6705269,41.6705269+-85.7261039
1812240,2285,Wa-Nee Community Schools,1300 N Main St,Nappanee,IN,46550,-86.00223059999999,41.4532945,41.4532945+-86.0022306
1803270,2305,Elkhart Community Schools,2720 California Rd,Elkhart,IN,46514,-86.01654200000002,41.6960813,41.6960813+-86.016542
1803930,2315,Goshen Community Schools,613 E Purl St,Goshen,IN,46526,-85.82550549999999,41.5800861,41.5800861+-85.8255055
1803510,2395,Fayette County School Corporation,1401 Spartan Drive,Connersville,IN,47331,-85.1654751,39.6320155,39.6320155+-85.1654751
1807410,2400,New Albany-Floyd County Consolidated School,2813 Grant Line PO Box 1087,New Albany,IN,47150,-85.8216656,38.317675,38.317675+-85.8216656
1800210,2435,Attica Consolidated School Corporation,205 E Sycamore St,Attica,IN,47918,-87.2504943,40.2763494,40.2763494+-87.2504943
1802430,2440,Covington Community School Corporation,601 Market St,Covington,IN,47932,-87.39491,40.1442623,40.1442623+-87.39491
1810620,2455,Southeast Fountain School Corporation,744 E US Hwy 136,Veedersburg,IN,47987,-87.315663,40.1249432,40.1249432+-87.315663
1803700,2475,Franklin County Community School Corporation,225 E 10th St,Brookville,IN,47012,-85.01010819999999,39.4258273,39.4258273+-85.0101082
1809630,2645,Rochester Community School Corporation,690 Zebra Ln Box 108,Rochester,IN,46975,-86.2248023,41.05549970000001,41.0554997+-86.2248023
1801410,2650,Caston School Corporation,9815 S State Rd 25,Rochester,IN,46975,-86.2822388,40.9117014,40.9117014+-86.2822388
1802940,2725,East Gibson School Corporation,941 S. Franklin St.,Oakland City,IN,47660,-87.3512775,38.3295906,38.3295906+-87.3512775
1807770,2735,North Gibson School Corporation,1104 N Embree St,Princeton,IN,47670,-87.5797401,38.3664824,38.3664824+-87.5797401
1810350,2765,South Gibson School Corporation,3321 W 800 S,Fort Branch,IN,47648,-87.5756502,38.237926,38.237926+-87.5756502
1803030,2815,Eastbrook Community School Corporation,CR 560 S 900 E,Marion,IN,46953,-85.5047347,40.5449593,40.5449593+-85.5047347
1806240,2825,Madison-Grant United School Corporation,11580 S/E 00 W,Fairmount,IN,46928,-85.6719567,40.4219101,40.4219101+-85.6719567
1806870,2855,Mississinewa Community School Corporation,424 E S 'A' St,Gas City,IN,46933,-85.6089238,40.4869391,40.4869391+-85.6089238
1806390,2865,Marion Community Schools,750 W 26th St,Marion,IN,46953,-85.66869109999999,40.5389673,40.5389673+-85.6686911
1800600,2920,Bloomfield School District,501 W Spring St.,Bloomfield,IN,47424,-86.9459796,39.0255378,39.0255378+-86.9459796
1803090,2940,Eastern Greene Schools,1471 N SR 43,Bloomfield,IN,47424,-86.7445054,39.0435779,39.0435779+-86.7445054
1805910,2950,Linton-Stockton School Corporation,109 I Street NE,Linton,IN,47441,-87.1608245,39.0424828,39.0424828+-87.1608245
1810110,2960,Metropolitan School District Shakamak Schools,9233 Shakamak School Rd,Jasonville,IN,47438,-87.2123124,39.1595628,39.1595628+-87.2123124
1800008,2980,White River Valley School District,PO Box 1470,Switz City,IN,47465,-87.053,39.0349999,39.0349999+-87.053
1800007,2990,Greene-Sullivan Special Ed Cooperative,77 'A' St NE,Linton,IN,47441,-87.16538899999999,39.0346794,39.0346794+-87.165389
1810650,3005,Hamilton Southeastern Schools,13485 Cumberland Rd,Fishers,IN,46038,-85.99644909999999,39.9843584,39.9843584+-85.9964491
1804260,3025,Hamilton Heights School Corporation,PO Box 469,Arcadia,IN,46030,-86.0216521,40.1758704,40.1758704+-86.0216521
1813080,3030,Westfield-Washington Schools,19500 Tomlinson Rd.,Westfield,IN,46074,-86.138875,40.070938,40.070938+-86.138875
1806480,3055,Sheridan Community Schools,24795 N Hinesley Rd,Sheridan,IN,46069,-86.21672319999999,40.1470545,40.1470545+-86.2167232
1801200,3060,Carmel Clay Schools,5201 E Main St,Carmel,IN,46033,-86.0810734,39.9777936,39.9777936+-86.0810734
1807650,3070,Noblesville Schools,18025 River Ave,Noblesville,IN,46062,-86.02813390000001,40.0498983,40.0498983+-86.0281339
1810710,3115,Southern Hancock County Community School Corporation,PO Box 508,New Palestine,IN,46163,-85.88914710000002,39.7219882,39.7219882+-85.8891471
1804050,3125,Greenfield-Central Community Schools,110 W North St,Greenfield,IN,46140,-85.77118999999999,39.78642749999999,39.7864275+-85.77119
1807260,3135,Mt Vernon Community School Corporation,1806 W SR 234,Fortville,IN,46040,-85.8391856,39.9024738,39.9024738+-85.8391856
1803120,3145,Eastern Hancock County Community School Corporation,10370 E 250 N,Charlottesville,IN,46117,-85.6097157,39.8237214,39.8237214+-85.6097157
1803720,3160,Lanesville Community School Corporation,2725 Crestview Ave NE,Lanesville,IN,47136,-85.9887129,38.2391774,38.2391774+-85.9887129
1800690,3180,North Harrison Community School Corporation,1260 Hwy 64 NW,Ramsey,IN,47166,-86.1478698,38.3218615,38.3218615+-86.1478698
1810360,3190,South Harrison Community Schools,315 S Harrison Dr,Corydon,IN,47112,-86.1216231,38.2029197,38.2029197+-86.1216231
1808100,3295,North West Hendricks Schools,Box 70,Lizton,IN,46149,-86.5433345,39.8867109,39.8867109+-86.5433345
1801020,3305,Brownsburg Community School Corporation,310 Stadium Dr,Brownsburg,IN,46112,-86.3897746,39.8383876,39.8383876+-86.3897746
1800270,3315,Avon Community School Corporation,7203 E US Hwy 36,Avon,IN,46123,-86.383533,39.749329,39.749329+-86.383533
1802550,3325,Danville Community School Corporation,200 Warrior Way,Danville,IN,46122,-86.5418426,39.7589247,39.7589247+-86.5418426
1808970,3330,Plainfield Community School Corporation,985 S Longfellow Dr,Plainfield,IN,46168,-86.39569639999999,39.6942444,39.6942444+-86.3956964
1806660,3335,Mill Creek Community School Corporation,6631 S CR 200 W,Clayton,IN,46118,-86.5596699,39.6645799,39.6645799+-86.5596699
1800660,3405,Blue River Valley Schools,3038 US Highway 36 East,New Castle,IN,47362,-85.3342973,39.9901455,39.7764481+-93.475583
1810380,3415,South Henry School Corporation,6972 S SR 103,Straughn,IN,47387,-85.35113220000001,39.8322102,39.8322102+-85.3511322
1808280,3435,Shenandoah School Corporation,5100 N Raider Rd,Middletown,IN,47356,-85.5260112,40.0057767,40.0057767+-85.5260112
1807440,3445,New Castle Community School Corporation,322 Elliott Ave,New Castle,IN,47362,-85.3802642,39.9261272,39.9261272+-85.3802642
1801060,3455,C A Beard Memorial School Corporation,8139 W US 40,Knightstown,IN,46148,-85.5874135,39.7921207,39.7921207+-85.5874135
1811250,3460,Taylor Community School Corporation,3750 E CR 300 S,Kokomo,IN,46902,-86.13360329999999,40.486427,40.486427+-86.1336033
1802040,3470,Northwestern School Corporation,3075 N Washington St,Kokomo,IN,46901,-86.1283297,40.5212014,40.5212014+-86.1283297
1803150,3480,Eastern Howard School Corporation,221 W Main Suite One,Greentown,IN,46936,-85.966644,40.475289,40.475289+-85.966644
1804470,3490,Western School Corporation,2600 S 600 W,Russiaville,IN,46979,-86.2433576,40.4372743,40.4372743+-86.2433576
1805370,3500,Kokomo School Corporation,1500 S Washington PO Box 2188,Kokomo,IN,46904,-86.13279949999999,40.4687983,40.4687983+-86.1327995
1804710,3625,Huntington County Community School Corporation,1063 E 900 S,Warren,IN,46792,-85.427556,40.695733,40.695733+-85.427556
1801230,3640,Medora Community School Corporation,PO Box 369,Medora,IN,47260,-86.1699827,38.8250535,38.8250535+-86.1699827
1810080,3675,Seymour Community Schools,1420 Corporate Way,Seymour,IN,47274,-85.909929,38.9485714,38.9485714+-85.909929
1801050,3695,Brownstown Central Community School Corporation,608 W Commerce St,Brownstown,IN,47220,-86.04941529999999,38.8781306,38.8781306+-86.0494153
1812060,3710,Crothersville Community Schools,201 S Preston St,Crothersville,IN,47229,-85.8360541,38.7963604,38.7963604+-85.8360541
1805280,3785,Kankakee Valley School Corporation,PO Box 278,Wheatfield,IN,46392,-87.05558049999999,41.19309399999999,41.193094+-87.0555805
1809420,3815,Rensselaer Central School Corporation,900 E Washington St,Rensselaer,IN,47978,-87.1405929,40.9385132,40.9385132+-87.1405929
1804980,3945,Jay School Corporation,1976 W Tyson Rd,Portland,IN,47371,-85.0056001,40.4323066,40.4323066+-85.0056001
1806120,3995,Madison Consolidated Schools,2421 Wilson Ave,Madison,IN,47250,-85.407156,38.772761,38.772761+-85.407156
1810800,4000,Southwestern-Jefferson County Consolidated,239 S Main Cross St,Hanover,IN,47243,-85.47357149999999,38.7077572,38.7077572+-85.4735715
1806100,4005,Madison Area Ed Special Srv Unit,702 Elm St,Madison,IN,47250,-85.3834913,38.7397255,38.7397255+-85.3834913
1805190,4015,Jennings County School Corporation,34 Main St,North Vernon,IN,47265,-85.6235796,39.006165,39.006165+-85.6235796
1805240,4135,Earlywood Educational Services,500 Earlywood Dr,Franklin,IN,46131,-86.0735797,39.52124269999999,39.5212427+-86.0735797
1801890,4145,Clark-Pleasant Community School Corporation,50 Center St,Whiteland,IN,46184,-86.0806424,39.5506954,39.5506954+-86.0806424
1801440,4205,Center Grove Community School Corporation,4800 W Stones Crossing Rd,Greenwood,IN,46143,-86.1906174,39.5780159,39.5780159+-86.1906174
1803240,4215,Edinburgh Community School Corporation,202 S Keeley St,Edinburgh,IN,46124,-85.9700055,39.3529242,39.3529242+-85.9700055
1803690,4225,Franklin Community School Corporation,998 Grizzly Cub Dr,Franklin,IN,46131,-86.06342699999999,39.4903895,39.4903895+-86.063427
1804110,4245,Greenwood Community School Corporation,605 W Smith Valley Rd,Greenwood,IN,46142,-86.1164517,39.6056939,39.6056939+-86.1164517
1807620,4255,Nineveh-Hensley-Jackson United,802 S Indian Creek Dr,Trafalgar,IN,46181,-86.1586032,39.409751,39.409751+-86.1586032
1801470,4265,Central Nine Career Center,1999 US 31 S,Greenwood,IN,46143,-86.099699,39.5890955,39.5890955+-86.099699
1807830,4315,North Knox School Corporation,11110 N SR 159,Bicknell,IN,47512,-87.30964,38.7910527,38.7910527+-87.30964
1810410,4325,South Knox School Corporation,6116 E SR 61,Vincennes,IN,47591,-87.4236566,38.63647599999999,38.636476+-87.4236566
1812120,4335,Vincennes Community School Corporation,1712 S Quail Run Road,Vincennes,IN,47591,-87.49570849999999,38.6507891,38.6507891+-87.4957085
1805550,4345,Wawasee Community School Corporation,801 S Sycamore St,Syracuse,IN,46567,-85.7494001,41.41395259999999,41.4139526+-85.7494001
1812420,4415,Warsaw Community Schools,PO Box 288,Warsaw,IN,46581,-85.85,41.23999999999999,41.24+-85.85
1811370,4445,Tippecanoe Valley School Corporation,8343 S SR 19,Akron,IN,46910,-86.03873879999999,41.1111783,41.1111783+-86.0387388
1813230,4455,Whitko Community School Corporation,"710 N SR 5, Suite B",Larwill,IN,46764,-85.6255391,41.1806012,41.1806012+-85.6255391
1809300,4515,Prairie Heights Community School Corporation,0305 S 1150 E,LaGrange,IN,46761,-85.2019378,41.6372788,41.6372788+-85.2019378
1813110,4525,Westview School Corporation,1545 S 600 W,Topeka,IN,46571,-85.5403575,41.60453,41.60453+-85.5403575
1805520,4535,Lakeland School Corporation,0825 E 075 N,LaGrange,IN,46761,-85.4088982,41.6542965,41.6542965+-85.4088982
1808320,4570,Northwest Indiana Special Education Cooperative,2150 W 97th Pl,Crown Point,IN,46307,-87.36044489999999,41.4412508,41.4412508+-87.3604449
1804350,4580,Hanover Community School Corporation,PO Box 645,Cedar Lake,IN,46303,-87.4411473,41.3647578,41.3647578+-87.4411473
1804620,4590,River Forest Community School Corporation,3250 Michigan St,Hobart,IN,46342,-87.2749975,41.5585088,41.5585088+-87.2749975
1809690,4600,Merrillville Community School Corporation,6701 Delaware St,Merrillville,IN,46410,-87.33030099999999,41.49660240000001,41.4966024+-87.330301
1805450,4615,Lake Central School Corporation,8260 Wicker Ave,Saint John,IN,46373,-87.47268079999999,41.4669846,41.4669846+-87.4726808
1811460,4645,Tri-Creek School Corporation,19290 Cline Avenue,Lowell,IN,46356,-87.42943600000001,41.26759089999999,41.2675909+-87.429436
1805460,4650,Lake Ridge New Tech Schools,6111 W Ridge Rd,Gary,IN,46408,-87.4118812,41.5487171,41.5487171+-87.4118812
1802490,4660,Crown Point Community School Corporation,200 E North St,Crown Point,IN,46307,-87.36254,41.4206001,41.4206001+-87.36254
1802880,4670,School City of East Chicago,1401 E 144th Street,East Chicago,IN,46312,-87.4531209,41.6330726,41.6330726+-87.4531209
1802910,4680,Lake Station Community Schools,2500 Pike St,Lake Station,IN,46405,-87.2447756,41.5726077,41.5726077+-87.2447756
1803870,4690,Gary Community School Corporation,PO Box 4608,Gary,IN,46404,-87.3711477,41.5812093,41.5812093+-87.3711477
1804170,4700,Griffith Public Schools,601 N Raymond,Griffith,IN,46319,-87.43458489999999,41.5320369,41.5320369+-87.4345849
1804320,4710,School City of Hammond,41 Williams Street,Hammond,IN,46320,-87.5242863,41.6115627,41.6115627+-87.5242863
1804560,4720,School Town of Highland,9145 Kennedy Ave,Highland,IN,46322,-87.46086129999999,41.5468806,41.5468806+-87.4608613
1804590,4730,School City of Hobart,32 E 7th St,Hobart,IN,46342,-87.3049769,41.5215959,41.5215959+-87.3049769
1807350,4740,School Town of Munster,8616 Columbia Ave,Munster,IN,46321,-87.5015952,41.5582672,41.5582672+-87.5015952
1813200,4760,School City of Whiting,1500 Center St,Whiting,IN,46394,-87.49049529999999,41.6814583,41.6814583+-87.4904953
1807560,4805,New Prairie United School Corporation,5327 N Cougar Rd,New Carlisle,IN,46552,-86.5640075,41.6831176,41.6831176+-86.5640075
1807470,4860,Metropolitan School District of New Durham Township,207 E Valparaiso St,Westville,IN,46391,-86.8936823,41.5420471,41.5420471+-86.8936823
1800107,4915,Tri-Township Consolidated School Corporation,PO Box 249,Wanatah,IN,46390,-86.898358,41.4305964,41.4305964+-86.898358
1806570,4925,Michigan City Area Schools,408 S Carroll Ave,Michigan City,IN,46360,-86.8683842,41.7059153,41.7059153+-86.8683842
1802190,4940,South Central Community School Corporation,9808 S 600 W,Union Mills,IN,46382,-86.8162286,41.4650155,41.4650155+-86.8162286
1805580,4945,LaPorte Community School Corporation,1921 'A' St,LaPorte,IN,46350,-86.71860889999999,41.589035,41.589035+-86.7186089
1807860,5075,North Lawrence Community Schools,PO Box 729,Bedford,IN,47421,-86.4872149,38.8611619,38.8611619+-86.4872149
1806900,5085,Mitchell Community Schools,441 N 8th St,Mitchell,IN,47446,-86.4767183,38.7360176,38.7360176+-86.4767183
1812880,5245,Frankton-Lapel Community Schools,7916 W 300 N,Anderson,IN,46011,-85.82314509999999,40.1497298,40.1497298+-85.8231451
1810440,5255,South Madison Community School Corporation,203 S Heritage Way,Pendleton,IN,46064,-85.7640148,40.000767,40.000767+-85.7640148
1800120,5265,Alexandria Community School Corporation,800 N. Central,Alexandria,IN,46001,-85.6816096,40.2695711,40.2695711+-85.6816096
1800150,5275,Anderson Community School Corporation,1600 Hillcrest Ave,Anderson,IN,46011,-85.69845440000002,40.12642659999999,40.1264266+-85.6984544
1803300,5280,Elwood Community School Corporation,1306 N Anderson St,Elwood,IN,46036,-85.84278499999999,40.2918728,40.2918728+-85.842785
1802640,5300,Metropolitan School District Decatur Township,5275 Kentucky Ave,Indianapolis,IN,46221,-86.27707710000001,39.6864815,39.6864815+-86.2770771
1803750,5310,Franklin Township Community School Corporation,6141 S Franklin Rd,Indianapolis,IN,46259,-86.0181253,39.6782549,39.6782549+-86.0181253
1805670,5330,Metropolitan School District Lawrence Township,6501 Sunnyside Rd,Indianapolis,IN,46236,-85.971256,39.8775748,39.8775748+-85.971256
1808820,5340,Perry Township Schools,6548 Orinoco Ave,Indianapolis,IN,46227,-86.13591149999999,39.6715735,39.6715735+-86.1359115
1808910,5350,Metropolitan School District Pike Township,6901 Zionsville Rd,Indianapolis,IN,46268,-86.2591214,39.878646,39.878646+-86.2591214
1812360,5360,Metropolitan School District Warren Township,975 N Post Rd,Indianapolis,IN,46219,-86.00868530000001,39.781537,39.781537+-86.0086853
1812720,5370,Metropolitan School District Washington Township,8550 Woodfield Crossing Blvd,Indianapolis,IN,46240,-86.1245268,39.9119369,39.9119369+-86.1245268
1812810,5375,Metropolitan School District Wayne Township,1220 S High Sch Rd,Indianapolis,IN,46241,-86.244373,39.7249989,39.7249989+-86.244373
1800450,5380,Beech Grove City Schools,5334 Hornet Ave,Beech Grove,IN,46107,-86.076734,39.7127309,39.7127309+-86.076734
1804770,5385,Indianapolis Public Schools,120 E Walnut St,Indianapolis,IN,46204,-86.1546655,39.7771898,39.7771898+-86.1546655
1800105,5390,Southside Special Services Of Marion County,5391 S Shelby St,Indianapolis,IN,46227,-86.13791069999999,39.6889159,39.6889159+-86.1379107
1810920,5400,School Town of Speedway,5300 Crawfordsville Rd,Speedway,IN,46224,-86.25166329999999,39.7926594,39.7926594+-86.2516633
1802520,5455,Culver Community Schools Corporation,700 School Street,Culver,IN,46511,-86.4238357,41.2228909,41.2228909+-86.4238357
1800180,5470,Argos Community Schools,500 Yearick Ave,Argos,IN,46501,-86.2503017,41.2417828,41.2417828+-86.2503017
1800900,5480,Bremen Public Schools,512 W Grant St,Bremen,IN,46506,-86.1519845,41.4429108,41.4429108+-86.1519845
1809060,5485,Plymouth Community School Corporation,611 Berkley St,Plymouth,IN,46563,-86.3019755,41.3461484,41.3461484+-86.3019755
1811490,5495,Triton School Corporation,100 Triton Dr,Bourbon,IN,46504,-86.11128269999999,41.3010524,41.3010524+-86.1112827
1810170,5520,Shoals Community School Corporation,11741 Ironton Rd,Shoals,IN,47581,-86.7769058,38.6680948,38.6680948+-86.7769058
1806060,5525,Loogootee Community School Corporation,P O Box 282,Loogootee,IN,47553,-86.9141695,38.6769945,38.6769945+-86.9141695
1806090,5615,Maconaquah School Corporation,7932 S Strawtown Pike,Bunker Hill,IN,46914,-86.0597312,40.6511247,40.6511247+-86.0597312
1807890,5620,North Miami Community Schools,394 E 900 N,Denver,IN,46926,-86.0779475,40.8640309,40.8640309+-86.0779475
1808340,5625,Oak Hill United School Corporation,"1474 N 800 W, PO Box 550",Converse,IN,46919,-85.8254655,40.5731528,40.5731528+-85.8254655
1808850,5635,Peru Community Schools,35 W 3rd St,Peru,IN,46970,-86.0693482,40.7522623,40.7522623+-86.0693482
1809480,5705,Richland-Bean Blossom Community School Corporation,600 S Edgewood Dr,Ellettsville,IN,47429,-86.63371099999999,39.2361338,39.2361338+-86.633711
1800630,5740,Monroe County Community School Corporation,315 E North Dr,Bloomington,IN,47401,-86.5304883,39.1449559,39.1449559+-86.5304883
1807900,5835,North Montgomery Community School Corporation,480 W 580 N,Crawfordsville,IN,47933,-86.9131438,40.12358649999999,40.1235865+-86.9131438
1810450,5845,South Montgomery Community School Corporation,PO Box 8,New Market,IN,47965,-86.9282329,39.951818,39.951818+-86.9282329
1802460,5855,Crawfordsville Community Schools,1000 Fairview Ave,Crawfordsville,IN,47933,-86.8882575,40.045629,40.045629+-86.8882575
1804140,5900,Monroe-Gregg School District,135 S Chestnut St,Monrovia,IN,46157,-86.4796753,39.5770332,39.5770332+-86.4796753
1803330,5910,Eminence Community School Corporation,PO Box 135,Eminence,IN,46125,-86.6413422,39.522015,39.522015+-86.6413422
1806510,5925,Metropolitan School District Martinsville Schools,PO Box 1416,Martinsville,IN,46151,-86.4283279,39.42782529999999,39.4278253+-86.4283279
1807140,5930,Mooresville Consolidated School Corporation,11 W Carlisle St,Mooresville,IN,46158,-86.37989639999999,39.616964,39.616964+-86.3798964
1807920,5945,North Newton School Corporation,PO Box 8,Morocco,IN,47963,-87.42075179999999,41.0509537,31.791702+-7.09262
1810470,5995,South Newton School Corporation,13232 S 50 E,Kentland,IN,47951,-87.3829141,40.8059853,40.8059853+-87.3829141
1801710,6055,Central Noble Community School Corporation,200 E Main St,Albion,IN,46701,-85.4223631,41.3954149,41.3954149+-85.4223631
1802970,6060,East Noble School Corporation,126 W Rush St,Kendallville,IN,46755,-85.2663051,41.4414183,41.4414183+-85.2663051
1812900,6065,West Noble School Corporation,5050 N US 33,Ligonier,IN,46767,-85.58130880000002,41.4258661,41.4258661+-85.5813088
1809600,6080,Rising Sun-Ohio County Community,110 S Henrietta St,Rising Sun,IN,47040,-84.8589718,38.9506056,38.9506056+-84.8589718
1808490,6145,Orleans Community Schools,173 W Marley St,Orleans,IN,47452,-86.4545265,38.6687959,38.6687959+-86.4545265
1800036,6150,Lost River Career Cooperative,600 Elm St - Suite One,Paoli,IN,47454,-86.477931,38.544719,38.544719+-86.477931
1808640,6155,Paoli Community School Corporation,501 Elm St - Ofc Supt,Paoli,IN,47454,-86.47770299999999,38.5513429,38.5513429+-86.477703
1810980,6160,Springs Valley Community School Corporation,498 S Larry Bird Blvd,French Lick,IN,47432,-86.6169738,38.5489895,38.5489895+-86.6169738
1810950,6195,Spencer-Owen Community Schools,205 E Hillside,Spencer,IN,47460,-86.760184,39.290642,39.290642+-86.760184
1810900,6260,Southwest Parke Community School Corporation,4851 S Coxville Rd,Montezuma,IN,47862,-87.3247317,39.6981319,39.6981319+-87.3247317
1801740,6325,Perry Central Community Schools Corporation,18677 Old SR 37,Leopold,IN,47551,-86.638032,38.079649,38.079649+-86.638032
1801170,6340,Cannelton City Schools,109 S Third St,Cannelton,IN,47520,-86.7438865,37.9102913,37.9102913+-86.7438865
1811260,6350,Tell City-Troy Township School Corporation,837 17th St,Tell City,IN,47586,-86.74086,37.9609219,37.9609219+-86.74086
1800118,6375,North Central Parke Comm School Corporation,602 Howard Ave,Rockville,IN,47872,-87.23421139999999,39.7679232,39.7679232+-87.2342114
1808900,6445,Pike County School Corporation,211 South 12th St,Petersburg,IN,47567,-87.27593949999999,38.4919987,38.4919987+-87.2759395
1809130,6455,Porter County Education Services,750 Ransom Road,Valparaiso,IN,46385,-87.0695511,41.5010116,41.5010116+-87.0695511
1800750,6460,Metropolitan School District Boone Township,307 S Main St,Hebron,IN,46341,-87.1977404,41.31646300000001,41.316463+-87.1977404
1802800,6470,Duneland School Corporation,601 W Morgan Ave,Chesterton,IN,46304,-87.059963,41.6087847,41.6087847+-87.059963
1809000,6510,East Porter County School Corporation,502 E College Ave - PO Box 370,Kouts,IN,46347,-87.0306651,41.31483559999999,41.3148356+-87.0306651
1809180,6520,Porter Township School Corporation,248 S 500 W,Valparaiso,IN,46385,-87.1620449,41.39866970000001,41.3986697+-87.1620449
1811700,6530,Union Township School Corporation,599 W 300 N Suite A,Valparaiso,IN,46385,-87.1802608,41.4788016,41.4788016+-87.1802608
1809150,6550,Portage Township Schools,6240 US Hwy 6,Portage,IN,46368,-87.17239839999999,41.5516742,41.5516742+-87.1723984
1811970,6560,Valparaiso Community Schools,3801 N Campbell St,Valparaiso,IN,46385,-87.06733229999999,41.5021902,41.5021902+-87.0673323
1807290,6590,Metropolitan School District Mount Vernon,1000 W 4th St,Mount Vernon,IN,47620,-87.90677800000002,37.9289986,37.9289986+-87.906778
1807950,6600,Metropolitan School District North Posey County Schools,101 N Church St,Poseyville,IN,47633,-87.7847493,38.1725875,38.1725875+-87.7847493
1807110,6620,Eastern Pulaski Community School Corporation,711 School Dr,Winamac,IN,46996,-86.5975121,41.0462144,41.0462144+-86.5975121
1809360,6630,West Central School Corporation,PO Box 578,Francesville,IN,47946,-86.8794613,40.9853172,40.9853172+-86.8794613
1800034,6700,Area 30 Career Center Edu Inter,1 N Calbert Way Suite A,Greencastle,IN,46135,-86.81724849999999,39.6469725,39.6469725+-86.8172485
1810500,6705,South Putnam Community Schools,3999 S US Hwy 231,Greencastle,IN,46135,-86.868156,39.7190374,39.7190374+-86.868156
1807980,6715,North Putnam Community Schools,PO Box 169-300 N Washington,Bainbridge,IN,46105,-86.8116325,39.761954,39.761954+-86.8116325
1800078,6720,Old National Trail Special Service Cooperative,"1 N Calbert Way, Suite B",Greencastle,IN,46135,-86.81724849999999,39.6469725,39.6469725+-86.8172485
1802220,6750,Cloverdale Community Schools,310 E Logan,Cloverdale,IN,46120,-86.78998399999999,39.5109654,39.5109654+-86.789984
1803990,6755,Greencastle Community School Corporation,1002 Mill Pond Lane,Greencastle,IN,46135,-86.8402697,39.64022670000001,39.6402267+-86.8402697
1811730,6795,Union School Corporation,8707 W US Hwy 36 PO Box 148,Modoc,IN,47358,-85.1251322,40.0481017,40.0481017+-85.1251322
1810740,6805,Randolph Southern School Corporation,1 Rebel Dr,Lynn,IN,47355,-84.94629119999999,40.0508894,40.0508894+-84.9462912
1807080,6820,Monroe Central School Corporation,1918 N CR 1000 W,Parker City,IN,47368,-85.165861,40.1725925,40.1725925+-85.165861
1801770,6825,Randolph Central School Corporation,103 N East St,Winchester,IN,47394,-84.9800068,40.1727229,40.1727229+-84.9800068
1803180,6835,Randolph Eastern School Corporation,731 N Plum St,Union City,IN,47390,-84.8146277,40.2055819,40.2055819+-84.8146277
1800010,6845,Greater Randolph Interlocal Cooperative,325 S Oak St - Suite301,Winchester,IN,47394,-84.9729361,40.1694656,40.1694656+-84.9729361
1810530,6865,South Ripley Community School Corporation,PO Box 690,Versailles,IN,47042,-85.2519035,39.0719988,39.0719988+-85.2519035
1800390,6895,Batesville Community School Corporation,PO Box 121,Batesville,IN,47006,-85.222184,39.3000511,39.3000511+-85.222184
1804800,6900,Jac-Cen-Del Community School Corporation,723 N Buckeye St,Osgood,IN,47037,-85.2938475,39.1357483,39.1357483+-85.2938475
1806630,6910,Milan Community Schools,412 E Carr St,Milan,IN,47031,-85.1249009,39.1205004,39.1205004+-85.1249009
1810660,6915,Southeastern Career Center,901 W US 50,Versailles,IN,47042,-85.2659413,39.0700665,39.0700665+-85.2659413
1809750,6995,Rush County Schools,330 W 8th St,Rushville,IN,46173,-85.44879929999999,39.6151833,39.6151833+-85.4487993
1809120,7150,John Glenn School Corporation,101 John Glenn Dr,Walkerton,IN,46574,-86.4810553,41.4580488,41.4580488+-86.4810553
1808760,7175,Penn-Harris-Madison School Corporation,55900 Bittersweet Rd,Mishawaka,IN,46545,-86.1086141,41.6821269,41.6821269+-86.1086141
1806840,7200,School City of Mishawaka,1402 S Main St,Mishawaka,IN,46544,-86.1793878,41.6491866,41.6491866+-86.1793878
1810290,7205,South Bend Community School Corporation,215 Dr Martin Luther King Jr B,South Bend,IN,46601,-86.2491572,41.6744616,41.6744616+-86.2491572
1811910,7215,Union-North United School Corporation,22601 Tyler Rd,Lakeville,IN,46536,-86.3049085,41.47752070000001,41.4775207+-86.3049085
1809990,7230,Scott County School District 1,PO Box 9,Austin,IN,47102,-85.80595819999999,38.7415038,38.7415038+-85.8059582
1810020,7255,Scott County School District 2,375 E McClain Ave,Scottsburg,IN,47170,-85.7663851,38.6844525,38.6844525+-85.7663851
1803210,7285,Shelby Eastern Schools,2451 N 600 E,Shelbyville,IN,46176,-85.6698547,39.561657,39.561657+-85.6698547
1808310,7350,Northwestern Consolidated School Corporation,4920 W 600 N,Fairland,IN,46126,-85.8743294,39.6107433,39.6107433+-85.8743294
1810830,7360,Southwestern Consolidated School Shelby County,3406 W 600 S,Shelbyville,IN,46176,-85.84558439999999,39.4410806,39.4410806+-85.8455844
1810140,7365,Shelbyville Central Schools,1121 E State Road 44,Shelbyville,IN,46176,-85.7599292,39.5196499,39.5196499+-85.7599292
1800009,7375,Blue River Career Programs,801 St Joseph St,Shelbyville,IN,46176,-85.7887676,39.5115388,39.5115388+-85.7887676
1808010,7385,North Spencer County School Corporation,PO Box 316,Lincoln City,IN,47552,-86.9949372,38.1226369,38.1226369+-86.9949372
1810560,7445,South Spencer County School Corporation,321 S 5th Street,Rockport,IN,47635,-87.0511065,37.8796483,37.8796483+-87.0511065
1808460,7495,Oregon-Davis School Corporation,5998 N 750 E,Hamlet,IN,46532,-86.5528671,41.3892494,41.3892494+-86.5528671
1807800,7515,North Judson-San Pierre School Corporation,801 Campbell Dr,North Judson,IN,46366,-86.7857581,41.2110215,41.2110215+-86.7857581
1805340,7525,Knox Community School Corporation,2 Redskin Trl,Knox,IN,46534,-86.62445699999999,41.2865936,41.2865936+-86.624457
1803780,7605,Fremont Community Schools,PO Box 665,Fremont,IN,46737,-84.9327395,41.7308834,41.7308834+-84.9327395
1804230,7610,Hamilton Community Schools,903 S Wayne St,Hamilton,IN,46742,-84.91995899999999,41.522286,41.522286+-84.919959
1811100,7615,Metropolitan School District Steuben County,400 S Martha St,Angola,IN,46703,-84.9984731,41.63222890000001,41.6322289+-84.9984731
1808160,7645,Northeast School Corporation,PO Box 493,Hymera,IN,47855,-87.3034771,39.1863242,39.1863242+-87.3034771
1810860,7715,Southwest School Corporation,PO Box 510,Sullivan,IN,47882,-87.4058525,39.0953199,39.0953199+-87.4058525
1811220,7775,Switzerland County School Corporation,1040 W Main St,Vevay,IN,47043,-85.0844188,38.7387378,38.7387378+-85.0844188
1805400,7855,Lafayette School Corporation,2300 Cason St,Lafayette,IN,47904,-86.8716805,40.4212346,40.4212346+-86.8716805
1811340,7865,Tippecanoe School Corporation,21 Elston Rd,Lafayette,IN,47909,-86.9042951,40.392306,40.392306+-86.9042951
1812870,7875,West Lafayette Community School Corporation,1130 N Salisbury,West Lafayette,IN,47906,-86.90548969999999,40.4371308,40.4371308+-86.9054897
1808040,7935,Tri-Central Community Schools,4774 N 200 W,Sharpsville,IN,46068,-86.0515635,40.3730602,40.3730602+-86.0515635
1811400,7945,Tipton Community School Corporation,1051 S Main St,Tipton,IN,46072,-86.03973479999999,40.271437,40.271437+-86.0397348
1811610,7950,Union County-College Corner Joint School District,107 S Layman St,Liberty,IN,47353,-84.9171539,39.6367448,39.6367448+-84.9171539
1803450,7995,Evansville Vanderburgh School Corporation,951 Walnut St,Evansville,IN,47713,-87.563493,37.9726009,37.9726009+-87.563493
1808070,8010,North Vermillion Community School Corporation,5551 N Falcon Dr,Cayuga,IN,47928,-87.4519791,39.9669441,39.9669441+-87.4519791
1810590,8020,South Vermillion Community School Corporation,PO Box 387,Clinton,IN,47842,-87.3980741,39.6569817,39.6569817+-87.3980741
1800079,8025,Wabash River CTE Center,PO Box 440,Montezuma,IN,47862,-87.3708496,39.7928162,39.7928162+-87.3708496
1812090,8030,Vigo County School Corporation,PO Box 3703,Terre Haute,IN,47803,-87.31155299999999,39.465825,39.465825+-87.311553
1802420,8035,Covered Bridge Special Ed District,961 Lafayette Ave,Terre Haute,IN,47804,-87.40153099999999,39.486115,39.486115+-87.401531
1806270,8045,Manchester Community Schools,404 W Ninth St,N Manchester,IN,46962,-85.77589990000001,41.009895,41.009895+-85.7758999
1812180,8050,Metropolitan School District Wabash County Schools,204 N 300 W,Wabash,IN,46992,-85.8493033,40.827845,40.827845+-85.8493033
1812150,8060,Wabash City Schools,189 W Market St,Wabash,IN,46992,-85.8237852,40.7964522,40.7964522+-85.8237852
1811930,8065,Heartland Career Center,79 S 200 W,Wabash,IN,46992,-85.8289458,40.8230475,40.8230475+-85.8289458
1806080,8115,Metropolitan School District Warren County,101 N Monroe St,Williamsport,IN,47993,-87.2937518,40.2872342,40.2872342+-87.2937518
1812390,8130,Warrick County School Corporation,PO Box 809,Boonville,IN,47601,-87.27417229999999,38.0492131,38.0492131+-87.2741723
1809810,8205,Salem Community Schools,500 N Harrison St,Salem,IN,47167,-86.1053513,38.6140898,38.6140898+-86.1053513
1803000,8215,East Washington School Corporation,1050 N Eastern School Rd,Pekin,IN,47165,-86.0018917,38.5133247,38.5133247+-86.0018917
1812930,8220,West Washington School Corporation,8026 W Batt Rd,Campbellsburg,IN,47108,-86.2341519,38.5835549,38.5835549+-86.2341519
1810310,8225,South Central Area Special Ed,600 Elm St Suite 2,Paoli,IN,47454,-86.47806179999999,38.5449856,38.5449856+-86.4780618
1807380,8305,Nettle Creek School Corporation,297 E Northmarket St,Hagerstown,IN,47346,-85.1583266,39.9123413,39.9123413+-85.1583266
1813050,8355,Western Wayne Schools,519 Queen St.,Pershing,IN,47370,-85.1374809,39.814673,39.814673+-85.1374809
1801560,8360,Centerville-Abington Community Schools,115 W South St,Centerville,IN,47330,-84.99763899999999,39.8144777,39.8144777+-84.997639
1808190,8375,Northeastern Wayne Schools,PO Box 406,Fountain City,IN,47341,-84.91746189999999,39.95560280000001,39.9556028+-84.9174619
1809510,8385,Richmond Community Schools,300 Hub Etchison Parkway,Richmond,IN,47374,-84.90213969999999,39.8246461,39.8246461+-84.9021397
1810770,8425,Southern Wells Community Schools,9120 S 300 W,Poneto,IN,46781,-85.2799395,40.6092734,40.6092734+-85.2799395
1808220,8435,Norwell Community Schools,312 N Jefferson St,Ossian,IN,46777,-85.16588,40.8827459,40.8827459+-85.16588
1800720,8445,Metropolitan School District Bluffton-Harrison,805 E Harrison St,Bluffton,IN,46714,-85.1661211,40.72098,40.72098+-85.1661211
1808130,8515,North White School Corporation,402 E Broadway St,Monon,IN,47959,-86.87485509999999,40.8687365,40.8687365+-86.8748551
1803810,8525,Frontier School Corporation,PO Box 809,Chalmers,IN,47929,-86.86945709999999,40.6630933,40.6630933+-86.8694571
1811430,8535,Tri-County School Corporation,105 N 2nd St,Wolcott,IN,47995,-87.0423027,40.7590428,40.7590428+-87.0423027
1811580,8565,Twin Lakes School Corporation,565 S Main St,Monticello,IN,47960,-86.7613855,40.7379004,40.7379004+-86.7613855
1810230,8625,Smith-Green Community Schools,222 W Tulley St,Churubusco,IN,46723,-85.32307209999999,41.23103709999999,41.2310371+-85.3230721
1800211,8635,Purdue Polytechnic High School North,1115 Broad Ripple Ave,Indianapolis,IN,46220,-86.13749899999999,39.8684963,39.8684963+-86.137499
1800209,8655,Excel Center - Bloomington,2088 Liberty Drive,Bloomington,IN,47403,-86.5792531,39.1462261,39.1462261+-86.5792531
1802280,8665,Whitley County Consolidated Schools,107 N Walnut St,Columbia City,IN,46725,-85.4935094,41.1581781,41.1581781+-85.4935094
1800207,8675,Invent Learning Hub,1849 E Pleasant Run Pkwy S Dr,Indianapolis,IN,46203,-86.1277027,39.7482564,39.7482564+-86.1277027
1800204,8685,Phalen Leadership Academy at George H Fisher School 93,7151 E 35th St,Indianapolis,IN,46226,-86.04221489999999,39.8196257,39.8196257+-86.0422149
1800205,8690,Dynamic Minds Academy,8350 Craig St,Indianapolis,IN,46250,-86.053996,39.9081208,39.9081208+-86.053996
1800215,8940,James and Rosemary Phalen Leadership Academy High School,4352 Mitthoeffer Rd,Indianapolis,IN,46235,-85.99254359999999,39.8359881,39.8359881+-85.9925436
1800218,8950,Phalen Leadership Academy at Francis Scott Key School 103,3920 Baker Dr,Indianapolis,IN,46236,-86.0018547,39.8285139,39.8285139+-86.0018547
1800214,8960,Purdue Polytechnic High School South Bend,635 S Lafayette Blvd,South Bend,IN,46601,-86.25426929999999,41.66837,41.66837+-86.2542693
1800219,8970,GEO Next Generation Academy,4010 N Sherman Drive,Indianapolis,IN,46226,-86.1058329,39.8305786,39.8305786+-86.1058329
1800220,8980,The PATH School,653 Somerset Ave,Indianapolis,IN,46222,-86.22132859999999,39.7760893,39.7760893+-86.2213286
1800222,9000,Phalen Virtual Leadership Academy,4352 Mitthoeffer Rd,Indianapolis,IN,46235,-85.99254359999999,39.8359881,39.8359881+-85.9925436
NA,9004,Paramount School of Excellence South Bend,3414 Hepler Street,South Bend,IN,46635,-86.20012849999999,41.7015781,41.7015781+-86.2001285
1800183,9015,Purdue Polytechnic High School Indiana,3029 E Washington St,Indianapolis,IN,46201,-86.1119985,39.7684626,39.7684626+-86.1119985
NA,9022,Paramount School of Excellence Lafayette,1904 Elmwood Ave,Lafayette,IN,47904,-86.8761052,40.42775100000001,40.427751+-86.8761052
NA,9027,Success Academy at Boys and Girls Club,502 E Sample St,South Bend,IN,46601,-86.2434032,41.6645268,41.6645268+-86.2434032
1800189,9030,Otwell Miller Academy,9958 East County Road 150 N,Otwell,IN,47564,-87.09246859999999,38.4440367,38.4440367+-87.0924686
1800191,9035,Indiana Connections Career Academy,"6640 Intech Boulevard, Ste 101",Indianapolis,IN,46278,-86.2754573,39.8759659,39.8759659+-86.2754573
NA,9036,Excel Center - Southeast,NA,NA,IN,NA,NA,NA,NA
1800184,9040,Avondale Meadows Middle School,3980 Meadows Dr,"Indianapolis,",IN,46205,-86.1117391,39.8293063,39.8293063+-86.1117391
NA,9043,Premier Arts Academy,2721 Prairie St.,Elkhart,IN,46517,-85.96647,41.658137,41.658137+-85.96647
1800188,9045,James & Rosemary Phalen Leadership Academy Middle School,4352 Mitthoeffer Road,Indianapolis,IN,46235,-85.99254359999999,39.8359881,39.8359881+-85.9925436
NA,9048,The Portage School of Leaders,305 W. Madison St.,South Bend,IN,46601,-86.2542119,41.6810591,41.6810591+-86.2542119
1800182,9050,Excel Center - Clarksville,1329 Applegate Lane,Clarksville,IN,47129,-85.7621089,38.3129182,38.3129182+-85.7621089
1813231,9054,The Genius School,4010 N Sherman Drive,Indianapolis,IN,46226,-86.1058329,39.8305786,39.8305786+-86.1058329
1800185,9055,Excel Center - Hammond,3438 169th Street,Hammond,IN,46323,-87.4454566,41.5868547,41.5868547+-87.4454566
1800196,9060,Paramount Cottage Home,1203 E St. Clair Street,Indianapolis,IN,46202,-86.1367921,39.7773463,39.7773463+-86.1367921
1800199,9065,Allegiant Preparatory Academy,8928 Ashford Castle Drive#1425,Indianapolis,IN,46250,-86.0701144,39.917703,39.917703+-86.0701144
1800193,9080,Vanguard Collegiate of Indy (CLOSING 10/6/2023),PO Box 681313,Indianapolis,IN,46268,-86.2410149,39.8966454,39.8966454+-86.2410149
1800202,9085,pilotED Schools,2710  Bethel Ave,Indianapolis,IN,46203,-86.1172022,39.7442191,39.7442191+-86.1172022
1800194,9090,Matchbook Learning,1163 Belmont Avenue,Indianapolis,IN,46222,-86.1959272,39.784106800000004,39.7841068+-86.1959272
1800006,9100,Indiana Department of Correction,302 W Washington St Rm E334,Indianapolis,IN,46204,-86.1652409,39.76798549999999,39.7679855+-86.1652409
1800179,9120,Hoosier College and Career Academy,5650 Caito Drive,Indianapolis,IN,46226,-86.0437188,39.8565141,39.8565141+-86.0437188
1800216,9130,Adelante Schools,1202 E Troy Ave,Indianapolis,IN,46203,-86.1369448,39.723436,39.723436+-86.1369448
1800206,9135,KIPP Indy Legacy High,2255 N Ralston Ave,Indianapolis,IN,46218,-86.1318035,39.8832556,39.8832556+-86.1318035
1800223,9140,BELIEVE Circle City High School,2540 North Capitol Ave,Indianapolis,IN,46208,-86.1617395,39.8037166,39.8037166+-86.1617395
1800187,9145,Herron-Riverside High School,110 E 16th Street,Indianapolis,IN,46208,-86.1555027,39.7889994,39.7889994+-86.1555027
1800181,9150,Circle City Prep Charter School,4002 N Franklin Road,Indianapolis,IN,46226,-86.0285822,39.8299955,39.8299955+-86.0285822
1800197,9160,Excel Center - Muncie,1023 W Jackson St,Muncie,IN,47305,-85.3977235,40.1926993,40.1926993+-85.3977235
1800208,9165,Paramount Englewood,1849 E Pleasant Run S Pkwy Drive,Indianapolis,IN,46203,-86.142418,39.7398651,39.7398651+-86.142418
1800224,9170,Rooted School Indianapolis,5750 E 30th St,Indianapolis,IN,46218,-86.0696425,39.8122628,39.8122628+-86.0696425
1800200,9190,Excel Center - Gary,3710 Clark Road,Gary,IN,46408,-87.3941981,41.5508718,41.5508718+-87.3941981
1800203,9195,Timothy L. Johnson Academy Middle,4625 Werling Drive,Fort Wayne,IN,46806,-85.10537839999999,41.03956,41.03956+-85.1053784
NA,9200,Archdiocese of Indianapolis,1400 N. Meridian St,Indianapolis,IN,46202,-86.1579498,39.7862374,39.7862374+-86.1579498
NA,9205,Diocese of Gary,9292 Broadway,Merrillville,IN,46410,-87.3364768,41.4501685,41.4501685+-87.3364768
NA,9210,Diocese of Lafayette Catholic School,2300 S 9th St,Lafayette,IN,47905,-86.88671029999999,40.3941828,40.3941828+-86.8867103
NA,9215,Diocese of Evansville,4200 N Kentucky Ave,Evansville,IN,47711,-87.54862469999999,38.0180985,38.0180985+-87.5486247
NA,9220,Diocese of Fort Wayne - South Bend,915 S Clinton St,Fort Wayne,IN,46802,-85.1371336,41.0778711,41.0778711+-85.1371336
NA,9230,Lutheran Schools of Indiana,1145 S Barr St,Fort Wayne,IN,46802,-85.13520319999999,41.0755274,41.0755274+-85.1352032
NA,9235,Amish Schools of Indiana,5520 West 100 North,LaGrange,IN,46761,-85.5322946,41.6544082,41.6544082+-85.5322946
NA,9240,The Oaks Academy,2301 N Park Ave,Indianapolis,IN,46205,-86.1472958,39.7996407,39.7996407+-86.1472958
1800134,9305,Excel Center - Richmond,1215 S 'J' St,Richmond,IN,47374,-84.88485089999999,39.8404719,39.8404719+-84.8848509
1800027,9310,Charter School of the Dunes,7300 E Melton Road,Gary,IN,46403,-87.2490835,41.5961327,41.5961327+-87.2490835
1800021,9315,Signature School Incorporated,610 Main St,Evansville,IN,47708,-87.5685286,37.9729993,37.9729993+-87.5685286
1800011,9320,Community Montessori Incorporated,4102 St Joseph Rd,New Albany,IN,47150,-85.8098317,38.3530814,38.3530814+-85.8098317
1800016,9325,Options Charter Schools,530 W Carmel Dr,Carmel,IN,46032,-86.1364945,39.9631271,39.9631271+-86.1364945
1800014,9330,Irvington Community School,5751 E University Ave,Indianapolis,IN,46219,-86.0688505,39.7658537,39.7658537+-86.0688505
1800138,9335,Excel Center - West,6000 W 34th Street,Indianapolis,IN,46224,-86.2641539,39.8176772,39.8176772+-86.2641539
1800142,9345,Excel Center - Lafayette,615 N 18th St 2nd Floor,Lafayette,IN,47904,-86.8765327,40.4232003,40.4232003+-86.8765327
1800013,9350,Timothy L Johnson Academy,4625 Werling Dr,Fort Wayne,IN,46806,-85.10537839999999,41.03956,41.03956+-85.1053784
1800135,9355,Excel Center - Kokomo,101 W Superior St,Kokomo,IN,46901,-86.1316859,40.4852813,40.4852813+-86.1316859
1800137,9365,Enlace Academy,3725 Kiel Ave,Indianapolis,IN,46224,-86.2623837,39.8228098,39.8228098+-86.2623837
1800018,9380,Christel House Academy South,2717 S East St,Indianapolis,IN,46225,-86.1474722,39.7273196,39.7273196+-86.1474722
1800122,9385,Christel House DORS,2717 S East St,Indianapolis,IN,46225,-86.1474722,39.7273196,39.7273196+-86.1474722
1800149,9395,Christel House Academy West,2717 S East St,Indianapolis,IN,46225,-86.1474722,39.7273196,39.7273196+-86.1474722
1800028,9400,KIPP Indy College Prep Middle,1740 E 30th St,Indianapolis,IN,46218,-86.1292201,39.8113831,39.8113831+-86.1292201
1800147,9410,KIPP Indy Unite Elementary,1740 E 30th Street,Indianapolis,IN,46218,-86.1292201,39.8113831,39.8113831+-86.1292201
1800145,9425,Tindley Genesis Academy,3960 Meadows Dr,Indianapolis,IN,46205,-86.11456869999999,39.8298485,39.8298485+-86.1145687
1800148,9430,Tindley Summit Academy,3960 Meadows Dr,Indianapolis,IN,46205,-86.11456869999999,39.8298485,39.8298485+-86.1145687
1800045,9445,Charles A Tindley Accelerated School,3960 Meadows Dr,Indianapolis,IN,46205,-86.11456869999999,39.8298485,39.8298485+-86.1145687
1800025,9460,Thea Bowman Leadership Academy,975 W 5th Ave,Gary,IN,46406,-87.3494159,41.6019645,41.6019645+-87.3494159
1800033,9485,Southeast Neighborhood School of Excellence,1601 S Barth Ave,Indianapolis,IN,46203,-86.140653,39.745813,39.745813+-86.140653
1800037,9495,Joshua Academy,1230 E Illinois St,Evansville,IN,47711,-87.5418261,37.9795938,37.9795938+-87.5418261
1800020,9500,West Central Education Service Ctr,PO Box 21,Greencastle,IN,46135,-86.8647316,39.6444898,39.6444898+-86.8647316
1800198,9505,Indiana Agriculture and Technology,"650 East Carmel Drive, Suite 200",Carmel,IN,46032,-86.1154384,39.9625186,39.9625186+-86.1154384
1800040,9510,Northern Indiana Education Center,56535 Magnetic Dr,Mishawaka,IN,46545,-86.12989429999999,41.6729977,41.6729977+-86.1298943
1800050,9520,Southern Indiana Education Center,1102 Tree Lane Dr,Jasper,IN,47546,-86.90202389999999,38.3718479,38.3718479+-86.9020239
1800070,9530,East Central Education Service Ctr,1601 Indiana Ave,Connersville,IN,47331,-85.1337556,39.6531838,39.6531838+-85.1337556
1800226,9531,Paramount Online Academy,1203 E St Clair St,Indianapolis,IN,46202,-86.1367921,39.7773463,39.7773463+-86.1367921
1800227,9533,Promise Prep,4430 N Post Rd,Indianapolis,IN,46226,-86.010503,39.83774210000001,39.8377421+-86.010503
1800228,9534,Indy Steam Academy,4020 N Sherman Drive,Indianapolis,IN,46226,-86.1037597,39.83108980000001,39.8310898+-86.1037597
1800052,9535,Gary Lighthouse Charter School,725 Clark Road,Gary,IN,46406,-87.3920034,41.5982845,41.5982845+-87.3920034
1800229,9536,Lawrence County Independent Schools,223 Old Farm Road,Bedford,IN,47421,-86.59392620000001,38.8643721,38.8643721+-86.5939262
1800230,9537,The Nature School of Central Indiana,6102 Boy Scout Rd,Indianapolis,IN,46226,-86.0387743,39.86545479999999,39.8654548+-86.0387743
1800231,9538,Herron Preparatory Academy,110 E 16th St,Indianapolis,IN,46202,-86.1555027,39.7889994,39.7889994+-86.1555027
1800232,9539,Excel Center - Elkhart,1 Blazer Blvd,Elkhart,IN,46516,-85.95887359999999,41.6851334,41.6851334+-85.9588736
1800080,9540,Wilson Education Center,PO Box 217,Charlestown,IN,47111,-85.6702406,38.45312,38.45312+-85.6702406
1800046,9545,21st Century Charter School of Gary,1630 N Meridian St 350,Indianapolis,IN,46202,-86.1578584,39.7892079,39.7892079+-86.1578584
1800090,9550,Wabash Valley Education Center,3061 Benton St,West Lafayette,IN,47906,-86.9064976,40.4623588,40.4623588+-86.9064976
1800048,9555,East Chicago Urban Enterprise Academy,1402 E Chicago Ave,East Chicago,IN,46312,-87.4531983,41.6295694,41.6295694+-87.4531983
1800110,9560,Region 8 Education Service Center,"1027 W Rudisill Blvd, Box #17",Fort Wayne,IN,46807,-85.1509294,41.0483953,41.0483953+-85.1509294
1800130,9570,Northwest Indiana Education Center,2939 41st St,Highland,IN,46322,-87.45642079999999,41.5448142,41.5448142+-87.4564208
1800051,9575,Victory College Prep,1780 Sloan Ave,Indianapolis,IN,46203,-86.08860659999999,39.7434073,39.7434073+-86.0886066
1800140,9580,Central Indiana Education Service Ctr,"3500 DePauw Blv, Suite 2020",Indianapolis,IN,46268,-86.220998,39.920073,39.920073+-86.220998
1800054,9595,East Chicago Lighthouse Charter,3916 Pulaski St,East Chicago,IN,46312,-87.4438921,41.6418912,41.6418912+-87.4438921
1800023,9605,Indiana School for the Blind & Visually Impaired,7725 N College Ave,Indianapolis,IN,46240,-86.143404,39.89353699999999,39.893537+-86.143404
1800024,9610,Indiana School For The Deaf,1200 E 42nd St,Indianapolis,IN,46205,-86.1362195,39.8360263,39.8360263+-86.1362195
1800042,9615,Andrew J Brown Academy,3600 N German Church Rd,Indianapolis,IN,46235,-85.9739647,39.82226,39.82226+-85.9739647
1800038,9620,Burris Laboratory School,Dean's Office-Teachers Clg BSU,Muncie,IN,47306,-85.3863599,40.1933767,40.1933767+-85.3863599
1800041,9625,Indiana Academy for Science Math Humanities,BSU - Teachers College (TC-912),Muncie,IN,47306,-85.40841859999999,40.20055199999999,40.200552+-85.4084186
1800057,9645,Avondale Meadows Academy,3980 Meadows Dr,Indianapolis,IN,46205,-86.1117391,39.8293063,39.8293063+-86.1117391
1800058,9650,Herron Charter,110 E 16th St,Indianapolis,IN,46202,-86.1555027,39.7889994,39.7889994+-86.1555027
1800217,9651,"The Hope Academy, Incorporated.",3919 Madison Ave,Indianapolis,IN,46227,-86.1407535,39.7089341,39.7089341+-86.1407535
1800061,9665,Geist Montessori Academy,6058 W 900 N,McCordsville,IN,46055,-85.92031999999999,39.914382,39.914382+-85.92032
1800064,9670,Indianapolis Metropolitan High School,1635 W Michigan St,Indianapolis,IN,46222,-86.19186239999999,39.7736017,39.7736017+-86.1918624
1800086,9680,Paramount Brookside,3020 Nowland Ave,Indianapolis,IN,46201,-86.1127317,39.787145,39.787145+-86.1127317
1800071,9685,Aspire Charter Academy,4900 W 15th Ave,Gary,IN,46406,-87.3970417,41.5891287,41.5891287+-87.3970417
1800065,9690,Renaissance Academy Charter School,4093 W US 20,LaPorte,IN,46350,-86.7793791,41.6900382,41.6900382+-86.7793791
1800082,9705,Hammond Academy of Science & Technology,33 Muenich Ct,Hammond,IN,46320,-87.5235999,41.6180354,41.6180354+-87.5235999
1813232,9722,Springville Community Academy,126 Brick Street,Springville,IN,47462,-86.6177221,38.9340274,38.9340274+-86.6177221
1800129,9725,Canaan Community Academy,8775 N Canaan Main Street,CANAAN,IN,47224,-85.2981908,38.8659689,38.8659689+-85.2981908
1800113,9730,Neighbors' New Vistas High School,5201 US Hwy 6,Portage,IN,46368,-87.21284829999999,41.5483316,41.5483316+-87.2128483
1800123,9735,Inspire Academy - A School of Inquiry,2801 E 16th St,Muncie,IN,47302,-85.3544311,40.1737112,40.1737112+-85.3544311
1813233,9737,Liberty Grove Schools,1002 W. 25th Street,Indianapolis,IN,46208,-86.17944949999999,39.80340640000001,39.8034064+-86.1794495
1800116,9750,Excel Center - Anderson,630 Nichol Ave,Anderson,IN,46016,-85.6886693,40.1051564,40.1051564+-85.6886693
1800131,9760,Smith Academy for Excellence,725 W Washington Blvd,Fort Wayne,IN,46802,-85.14876319999999,41.0754857,41.0754857+-85.1487632
1800067,9785,Indiana Math & Science Academy,4575 W 38th St,Indianapolis,IN,46254,-86.2369791,39.8226343,39.8226343+-86.2369791
1800077,9790,Anderson Preparatory Academy,101 W 29th St,Anderson,IN,46016,-85.6802517,40.0865385,40.0865385+-85.6802517
1813234,9829,Monarca Academy,5525 W 34th Street,Indianapolis,IN,46224,-86.25855399999999,39.81465110000001,39.8146511+-86.258554
1800083,9835,The Bloomington Project School,349 S Walnut St,Bloomington,IN,47401,-86.5332669,39.1629708,39.1629708+-86.5332669
1800159,9840,Excel Center - University Heights,3919 Madison Ave,Indianapolis,IN,46227,-86.1407535,39.7089341,39.7089341+-86.1407535
1800163,9855,Excel Center - Noblesville,1635 W Michigan St,Indianapolis,IN,46222,-86.19186239999999,39.7736017,39.7736017+-86.1918624
1800088,9870,Discovery Charter School,800 Canonie Dr,Porter,IN,46304,-87.0523947,41.6386702,41.6386702+-87.0523947
1800099,9875,Rock Creek Community Academy,8000 Diefenbach Ln,Sellersburg,IN,47172,-85.73993019999999,38.4052383,38.4052383+-85.7399302
1800101,9880,Career Academy High School,3801 Crescent Cir,South Bend,IN,46628,-86.3310568,41.7273959,41.7273959+-86.3310568
1800102,9885,Gary Middle College,1630 N Meridian St 350,Indianapolis,IN,46202,-86.1578584,39.7892079,39.7892079+-86.1578584
1800094,9895,Indiana Math & Science Academy - North,7435 N Keystone Ave,Indianapolis,IN,46240,-86.1209799,39.8897688,39.8897688+-86.1209799
1800169,9900,Excel Center - South Bend,PO Box 3846,South Bend,IN,46619,-86.34781509999999,41.6530149,41.6530149+-86.3478151
1800098,9905,Indiana Connections Academy,"6640 INTECH Blvd, Suite 101",Indianapolis,IN,46278,-86.2754573,39.8759659,39.8759659+-86.2754573
1800093,9910,Excel Center for Adult Learners,1635 W Michigan St,Indianapolis,IN,46222,-86.19186239999999,39.7736017,39.7736017+-86.1918624
1800108,9920,Damar Charter Academy,"5125 Decatur Blvd, Suite D",Indianapolis,IN,46241,-86.28635829999999,39.68853319999999,39.6885332+-86.2863583
1800124,9925,Phalen Leadership Academy - Indiana Incorporated,2323 North Illinois Street,Indianapolis,IN,46208,-86.15856339999999,39.7997453,39.7997453+-86.1585634
1800146,9935,Vision Academy,1751 E Riverside Drive,Indianapolis,IN,46202,-86.1907104,39.7908806,39.7908806+-86.1907104
1800165,9950,Dugger Union Community School Corporation,7356 E County Road 50 South,Dugger,IN,47848,-87.2712797,39.0733789,39.0733789+-87.2712797
1800225,9954,Phalen Leadership Academy at Louis B Russell School 48 B Russell School 48,3445 N Central Ave,Indianapolis,IN,46205,-86.14919379999999,39.8192019,39.8192019+-86.1491938
1800168,9955,Mays Community Academy,PO Box 188,Lewisville,IN,47352,-85.35274679999999,39.8067126,39.8067126+-85.3527468
1800161,9960,Success Academy Primary School,3408 Ardmore Trail,South Bend,IN,46628,-86.331558,41.7277848,41.7277848+-86.331558
1800164,9965,Career Academy Middle School,"3801 Crescent Circle, Suite B",South Bend,IN,46628,-86.3310568,41.7273959,41.7273959+-86.3310568
1800172,9970,ACE Preparatory Academy,5326 Hillside Ave,Indianapolis,IN,46220,-86.12609330000001,39.8500549,39.8500549+-86.1260933
1800170,9975,Global Preparatory Academy,2033 Sugar Grove Ave,Indianapolis,IN,46202,-86.18431439999999,39.7948086,39.7948086+-86.1843144
1800171,9980,Steel City Academy,2650 West 35th Avenue,Gary,IN,46408,-87.3684334,41.5561186,41.5561186+-87.3684334
1800176,9985,Seven Oaks Classical School,200 E Association St,Bloomington,IN,47429,-86.6215426,39.2296599,39.2296599+-86.6215426
1800178,9990,Higher Institute of Arts & Technology,5861 Harrison Street,Merrillville,IN,46410,-87.3448516,41.5123553,41.5123553+-87.3448516
1800175,9995,Excel Center - Shelbyville,111 North Harrison Street,Shelbyville,IN,46176,-85.7771983,39.5253161,39.5253161+-85.7771983
NA,9999,Out Of State Student,100 N Senate Ave,Indianapolis,IN,46204,-86.16416439999999,39.769134,39.769134+-86.1641644
